{"type": "FeatureCollection", "features": [ {"type": "Feature", "properties": {"norad_id": 39778, "name": "IRIDIUM 33 DEB", "group": "iridium-33-debris", "lat": 64.76156715082236, "lon": -139.95201447772024, "alt_km": 701.4501069291828, "timestamp": "2025-12-02T06:27:53.397513+00:00", "meta": {"OBJECT_NAME": "IRIDIUM 33 DEB", "OBJECT_ID": "1997-051AAK", "EPOCH": "2025-11-28T22:39:52.364448", "MEAN_MOTION": 14.54103709, "ECCENTRICITY": 0.00090272, "INCLINATION": 86.3783, "RA_OF_ASC_NODE": 49.2122, "ARG_OF_PERICENTER": 80.8858, "MEAN_ANOMALY": 279.337, "EPHEMERIS_TYPE": 0, "CLASSIFICATION_TYPE": "U", "NORAD_CAT_ID": 39778, "ELEMENT_SET_NO": 999, "REV_AT_EPOCH": 60492, "BSTAR": 0.0010078213, "MEAN_MOTION_DOT": 4.278e-05, "MEAN_MOTION_DDOT": 0}, "tle": {"line1": "1 39778U 97051AAK 25332.94435607  .00004278  00000+0  10078-2 0  9997", "line2": "2 39778  86.3783  49.2122 0009027  80.8858 279.3370 14.54103709604922"}}, "geometry": {"type": "Point", "coordinates": [-139.95201447772024, 64.76156715082236]}}, {"type": "Feature", "properties": {"norad_id": 39781, "name": "IRIDIUM 33 DEB", "group": "iridium-33-debris", "lat": 64.85872869228639, "lon": -89.93318332106473, "alt_km": 880.3081022631095, "timestamp": "2025-12-02T06:27:53.397523+00:00", "meta": {"OBJECT_NAME": "IRIDIUM 33 DEB", "OBJECT_ID": "1997-051AAN", "EPOCH": "2025-12-01T14:05:13.737984", "MEAN_MOTION": 14.20093316, "ECCENTRICITY": 0.01818611, "INCLINATION": 86.3695, "RA_OF_ASC_NODE": 262.5729, "ARG_OF_PERICENTER": 308.3699, "MEAN_ANOMALY": 228.4219, "EPHEMERIS_TYPE": 0, "CLASSIFICATION_TYPE": "U", "NORAD_CAT_ID": 39781, "ELEMENT_SET_NO": 999, "REV_AT_EPOCH": 7948, "BSTAR": 0.0058998753, "MEAN_MOTION_DOT": 0.00014872, "MEAN_MOTION_DDOT": 0}, "tle": {"line1": "1 39781U 97051AAN 25335.58696456  .00014872  00000+0  58999-2 0  9990", "line2": "2 39781  86.3695 262.5729 0181861 308.3699 228.4219 14.20093316 79488"}}, "geometry": {"type": "Point", "coordinates": [-89.93318332106473, 64.85872869228639]}}, {"type": "Feature", "properties": {"norad_id": 39783, "name": "IRIDIUM 33 DEB", "group": "iridium-33-debris", "lat": -17.837955043016184, "lon": 81.977201216758, "alt_km": 488.1917301861122, "timestamp": "2025-12-02T06:27:53.397533+00:00", "meta": {"OBJECT_NAME": "IRIDIUM 33 DEB", "OBJECT_ID": "1997-051AAQ", "EPOCH": "2025-11-16T15:05:40.850592", "MEAN_MOTION": 15.19327111, "ECCENTRICITY": 0.00057535, "INCLINATION": 86.1306, "RA_OF_ASC_NODE": 268.8004, "ARG_OF_PERICENTER": 179.9151, "MEAN_ANOMALY": 1.8316, "EPHEMERIS_TYPE": 0, "CLASSIFICATION_TYPE": "U", "NORAD_CAT_ID": 39783, "ELEMENT_SET_NO": 999, "REV_AT_EPOCH": 60401, "BSTAR": 0.010398125, "MEAN_MOTION_DOT": 0.00226179, "MEAN_MOTION_DDOT": 0}, "tle": {"line1": "1 39783U 97051AAQ 25320.62894503  .00226179  00000+0  10398-1 0  9999", "line2": "2 39783  86.1306 268.8004 0005753 179.9151   1.8316 15.19327111604018"}}, "geometry": {"type": "Point", "coordinates": [81.977201216758, -17.837955043016184]}}, {"type": "Feature", "properties": {"norad_id": 40996, "name": "IRIDIUM 33 DEB", "group": "iridium-33-debris", "lat": -83.1184290493266, "lon": -25.599590718090578, "alt_km": 597.4298324363517, "timestamp": "2025-12-02T06:27:53.397543+00:00", "meta": {"OBJECT_NAME": "IRIDIUM 33 DEB", "OBJECT_ID": "1997-051ABJ", "EPOCH": "2025-11-30T01:58:04.991808", "MEAN_MOTION": 14.95095343, "ECCENTRICITY": 0.00120283, "INCLINATION": 86.3535, "RA_OF_ASC_NODE": 7.3184, "ARG_OF_PERICENTER": 99.499, "MEAN_ANOMALY": 290.4978, "EPHEMERIS_TYPE": 0, "CLASSIFICATION_TYPE": "U", "NORAD_CAT_ID": 40996, "ELEMENT_SET_NO": 999, "REV_AT_EPOCH": 62299, "BSTAR": 0.0030307541, "MEAN_MOTION_DOT": 0.00033396, "MEAN_MOTION_DDOT": 0}, "tle": {"line1": "1 40996U 97051ABJ 25334.08200222  .00033396  00000+0  30308-2 0  9992", "line2": "2 40996  86.3535   7.3184 0012028  99.4990 290.4978 14.95095343622996"}}, "geometry": {"type": "Point", "coordinates": [-25.599590718090578, -83.1184290493266]}}, {"type": "Feature", "properties": {"norad_id": 40998, "name": "IRIDIUM 33 DEB", "group": "iridium-33-debris", "lat": 61.41770511340502, "lon": -128.53783904430378, "alt_km": 729.3738063181481, "timestamp": "2025-12-02T06:27:53.397554+00:00", "meta": {"OBJECT_NAME": "IRIDIUM 33 DEB", "OBJECT_ID": "1997-051ABL", "EPOCH": "2025-12-01T11:54:41.054400", "MEAN_MOTION": 14.45032716, "ECCENTRICITY": 0.00094073, "INCLINATION": 86.3837, "RA_OF_ASC_NODE": 58.458, "ARG_OF_PERICENTER": 113.8463, "MEAN_ANOMALY": 305.4754, "EPHEMERIS_TYPE": 0, "CLASSIFICATION_TYPE": "U", "NORAD_CAT_ID": 40998, "ELEMENT_SET_NO": 999, "REV_AT_EPOCH": 6519, "BSTAR": 0.00064363446, "MEAN_MOTION_DOT": 2.267e-05, "MEAN_MOTION_DDOT": 0}, "tle": {"line1": "1 40998U 97051ABL 25335.49630850  .00002267  00000+0  64363-3 0  9996", "line2": "2 40998  86.3837  58.4580 0009407 113.8463 305.4754 14.45032716 65195"}}, "geometry": {"type": "Point", "coordinates": [-128.53783904430378, 61.41770511340502]}}, {"type": "Feature", "properties": {"norad_id": 46435, "name": "IRIDIUM 33 DEB", "group": "iridium-33-debris", "lat": 56.05646997251894, "lon": 12.910539179130106, "alt_km": 934.5715519249843, "timestamp": "2025-12-02T06:27:53.397564+00:00", "meta": {"OBJECT_NAME": "IRIDIUM 33 DEB", "OBJECT_ID": "1997-051ABN", "EPOCH": "2025-11-29T09:55:50.719008", "MEAN_MOTION": 14.31124144, "ECCENTRICITY": 0.02140805, "INCLINATION": 86.2846, "RA_OF_ASC_NODE": 199.6762, "ARG_OF_PERICENTER": 319.3143, "MEAN_ANOMALY": 220.6231, "EPHEMERIS_TYPE": 0, "CLASSIFICATION_TYPE": "U", "NORAD_CAT_ID": 46435, "ELEMENT_SET_NO": 999, "REV_AT_EPOCH": 7725, "BSTAR": 0.006461235, "MEAN_MOTION_DOT": 0.0002197, "MEAN_MOTION_DDOT": 0}, "tle": {"line1": "1 46435U 97051ABN 25333.41378147  .00021970  00000+0  64612-2 0  9994", "line2": "2 46435  86.2846 199.6762 0214080 319.3143 220.6231 14.31124144 77259"}}, "geometry": {"type": "Point", "coordinates": [12.910539179130106, 56.05646997251894]}}, {"type": "Feature", "properties": {"norad_id": 46734, "name": "IRIDIUM 33 DEB", "group": "iridium-33-debris", "lat": -61.41547865237999, "lon": 0.5745669618983652, "alt_km": 751.1384611517569, "timestamp": "2025-12-02T06:27:53.397574+00:00", "meta": {"OBJECT_NAME": "IRIDIUM 33 DEB", "OBJECT_ID": "1997-051ABR", "EPOCH": "2025-12-01T09:21:29.278944", "MEAN_MOTION": 14.41774419, "ECCENTRICITY": 0.00397336, "INCLINATION": 86.2649, "RA_OF_ASC_NODE": 7.8461, "ARG_OF_PERICENTER": 13.5805, "MEAN_ANOMALY": 43.5005, "EPHEMERIS_TYPE": 0, "CLASSIFICATION_TYPE": "U", "NORAD_CAT_ID": 46734, "ELEMENT_SET_NO": 999, "REV_AT_EPOCH": 62847, "BSTAR": 0.0010971823, "MEAN_MOTION_DOT": 3.634e-05, "MEAN_MOTION_DDOT": 0}, "tle": {"line1": "1 46734U 97051ABR 25335.38992221  .00003634  00000+0  10972-2 0  9996", "line2": "2 46734  86.2649   7.8461 0039733  13.5805  43.5005 14.41774419628470"}}, "geometry": {"type": "Point", "coordinates": [0.5745669618983652, -61.41547865237999]}}, {"type": "Feature", "properties": {"norad_id": 46965, "name": "IRIDIUM 33 DEB", "group": "iridium-33-debris", "lat": 75.37710699545794, "lon": 151.12339798732896, "alt_km": 686.7557554461346, "timestamp": "2025-12-02T06:27:53.397584+00:00", "meta": {"OBJECT_NAME": "IRIDIUM 33 DEB", "OBJECT_ID": "1997-051ABX", "EPOCH": "2025-12-01T19:17:57.587136", "MEAN_MOTION": 14.60159185, "ECCENTRICITY": 0.0019627, "INCLINATION": 86.3356, "RA_OF_ASC_NODE": 345.5484, "ARG_OF_PERICENTER": 10.7692, "MEAN_ANOMALY": 169.2127, "EPHEMERIS_TYPE": 0, "CLASSIFICATION_TYPE": "U", "NORAD_CAT_ID": 46965, "ELEMENT_SET_NO": 999, "REV_AT_EPOCH": 62108, "BSTAR": 0.00078041, "MEAN_MOTION_DOT": 3.788e-05, "MEAN_MOTION_DDOT": 0}, "tle": {"line1": "1 46965U 97051ABX 25335.80413874  .00003788  00000+0  78041-3 0  9993", "line2": "2 46965  86.3356 345.5484 0019627  10.7692 169.2127 14.60159185621081"}}, "geometry": {"type": "Point", "coordinates": [151.12339798732896, 75.37710699545794]}}, {"type": "Feature", "properties": {"norad_id": 46971, "name": "IRIDIUM 33 DEB", "group": "iridium-33-debris", "lat": -41.09320969628801, "lon": 161.23538963662483, "alt_km": 586.4251535284302, "timestamp": "2025-12-02T06:27:53.397594+00:00", "meta": {"OBJECT_NAME": "IRIDIUM 33 DEB", "OBJECT_ID": "1997-051ACD", "EPOCH": "2025-11-30T18:57:44.502624", "MEAN_MOTION": 14.96904917, "ECCENTRICITY": 0.00065248, "INCLINATION": 86.3392, "RA_OF_ASC_NODE": 338.7285, "ARG_OF_PERICENTER": 8.9727, "MEAN_ANOMALY": 165.6369, "EPHEMERIS_TYPE": 0, "CLASSIFICATION_TYPE": "U", "NORAD_CAT_ID": 46971, "ELEMENT_SET_NO": 999, "REV_AT_EPOCH": 64051, "BSTAR": 0.0032009998, "MEAN_MOTION_DOT": 0.00036919, "MEAN_MOTION_DDOT": 0}, "tle": {"line1": "1 46971U 97051ACD 25334.79009841  .00036919  00000+0  32010-2 0  9999", "line2": "2 46971  86.3392 338.7285 0006524   8.9727 165.6369 14.96904917640518"}}, "geometry": {"type": "Point", "coordinates": [161.23538963662483, -41.09320969628801]}}, {"type": "Feature", "properties": {"norad_id": 46974, "name": "IRIDIUM 33 DEB", "group": "iridium-33-debris", "lat": 65.41908658803551, "lon": 117.97812226589706, "alt_km": 801.4787828999015, "timestamp": "2025-12-02T06:27:53.397604+00:00", "meta": {"OBJECT_NAME": "IRIDIUM 33 DEB", "OBJECT_ID": "1997-051ACG", "EPOCH": "2025-11-30T02:35:30.463008", "MEAN_MOTION": 14.43749529, "ECCENTRICITY": 0.00958857, "INCLINATION": 86.2984, "RA_OF_ASC_NODE": 110.7848, "ARG_OF_PERICENTER": 228.1133, "MEAN_ANOMALY": 131.1861, "EPHEMERIS_TYPE": 0, "CLASSIFICATION_TYPE": "U", "NORAD_CAT_ID": 46974, "ELEMENT_SET_NO": 999, "REV_AT_EPOCH": 57326, "BSTAR": 0.0048958995, "MEAN_MOTION_DOT": 0.00017648, "MEAN_MOTION_DDOT": 0}, "tle": {"line1": "1 46974U 97051ACG 25334.10799147  .00017648  00000+0  48959-2 0  9999", "line2": "2 46974  86.2984 110.7848 0095885 228.1133 131.1861 14.43749529573265"}}, "geometry": {"type": "Point", "coordinates": [117.97812226589706, 65.41908658803551]}}]}